ATS 1                   
1 02608U 66110A   09116.85180030 -.00000214  00000-0  10000-3 0  9556
2 02608   8.0049 310.8784 0003318 193.5727 166.2854  1.00303421 71991
ATS 3                   
1 03029U 67111A   09116.58008072 -.00000106  00000-0  10000-3 0  4635
2 03029   9.5155 318.3280 0015841  38.1367 321.8656  1.00272645151862
ORIZURU (DEBUT)         
1 20479U 90013B   09118.65118624 -.00000057  00000-0 -45822-4 0  2449
2 20479  99.0674  50.2055 0538674 277.5363  76.4885 12.83683299900673
SURFSAT                 
1 23711U 95059B   09118.03906436  .00000077  00000-0  24222-3 0  2220
2 23711 100.2992 122.2316 0367910 232.9401 123.7562 13.12566777645852
MAQSAT H                
1 25023U 97066A   09118.27697400 -.00000329  00000-0 -18905-2 0  6442
2 25023   7.5954 240.7307 6505151 101.4679 333.1659  3.09499672129807
MAQSAT B                
1 25024U 97066B   09118.48751843 -.00000105  00000-0 -27254-3 0  6976
2 25024   7.6017 237.0478 6513764 107.9410 329.1752  3.08768220129716
TEAMSAT                 
1 25025U 97066C   09117.48868711 -.00000025  00000-0  45263-4 0  7094
2 25025   7.6159 252.3762 6512039  78.3917 343.4772  3.07912959129313
OPAL (OO-38)            
1 26063U 00004C   09118.39880820 -.00000044  00000-0  51902-5 0  4927
2 26063 100.2027 255.8767 0037101  42.0810 318.3211 14.35861399484800
FALCONSAT               
1 26064U 00004D   09118.00583296 -.00000148  00000-0 -30861-4 0  4727
2 26064 100.2032 253.4870 0038330  50.1021 310.3512 14.35414442484613
PICOSAT 1 & 2 [TETHERED]
1 26080U 00004H   09118.37066679  .00000076  00000-0  42683-4 0   624
2 26080 100.2184 278.8101 0032384 352.4821   7.5891 14.40322206484310
PICOSAT 3               
1 26091U 00004J   09118.07690738  .00000169  00000-0  67613-4 0  5989
2 26091 100.2201 289.4594 0031179 316.8945  42.9796 14.43375669484195
PICOSAT 4               
1 26092U 00004K   09118.39288615  .00000074  00000-0  42057-4 0  4442
2 26092 100.2028 273.0850 0034994 348.4622  11.5765 14.40268160483537
PICOSAT 5               
1 26093U 00004L   09117.99022577  .00000133  00000-0  55441-4 0  3346
2 26093 100.2173 296.1025 0032076 298.9766  60.8202 14.44912183484805
PICOSAT 6               
1 26094U 00004M   09118.38794404  .00000067  00000-0  40350-4 0  7697
2 26094 100.2067 271.4228 0034746 359.0186   1.0967 14.39559896483042
SNAP 1                  
1 26386U 00033C   09117.85591111 -.00000054  00000-0 -62492-6 0  7011
2 26386  98.3869 148.9450 0011340 356.1787   3.9304 14.65132638471793
CHAMP                   
1 26405U 00039B   09118.18586772  .00008285  00000-0  37011-4 0  8495
2 26405  87.2230 333.8406 0003335  77.0689 283.0961 15.83963377501736
PICOSAT 9               
1 26930U 01043B   09118.40930868 -.00000015  00000-0  26488-4 0  1356
2 26930  67.0023 171.1773 0005357 218.3899 141.6820 14.30043608395623
PROBA 1                 
1 26958U 01049B   09118.80902027  .00000169  00000-0  22322-4 0  5527
2 26958  97.6270 183.2453 0081804 170.9593 189.3144 14.89656394408472
CUTE-1 (CO-55)          
1 27844U 03031E   09117.56383462  .00000051  00000-0  44095-4 0  5669
2 27844  98.7144 127.4443 0009077 292.9470  67.0769 14.20633927302075
CANX-1                  
1 27847U 03031H   09117.98023744  .00000027  00000-0  32825-4 0  4910
2 27847  98.7069 128.8210 0008640 271.4559  88.5606 14.20959436302160
CUBESAT XI-IV (CO-57)   
1 27848U 03031J   09117.53431897  .00000053  00000-0  45047-4 0  5127
2 27848  98.7165 126.4767 0009182 298.4572  61.5675 14.20436689302038
NAXING 1                
1 28221U 04012B   09117.75237970  .00000183  00000-0  25491-4 0  1551
2 28221  97.4943 155.7754 0012170  13.5722 346.5807 14.87888514272815
ST5-A                   
1 28980U 06008A   09117.91915404  .00001633  00000-0  10032-3 0  9703
2 28980 105.6784 117.7114 2357287 273.4037  60.2542 10.61175761119658
ST5-B                   
1 28981U 06008B   09118.56096423  .00001612  18092-5  73434-4 0   199
2 28981 105.6493 136.9510 2337819 254.8100  78.4374 10.73179961120488
ST5-C                   
1 28982U 06008C   09117.92690900  .00001876  17845-5  95180-4 0   200
2 28982 105.6739 131.6695 2346975 262.2745  70.7833 10.69245298120161
GENESIS 1               
1 29252U 06029A   09118.23695231 -.00000007  00000-0  12875-4 0  7620
2 29252  64.5075 154.8115 0039254 218.4948 141.3364 15.03366991153401
FALCONSAT-3             
1 30776U 07006E   09117.95406051  .00000312  00000-0  25649-4 0  5570
2 30776  35.4335  44.1764 0001345 254.2798 105.7758 15.03224108117530
GENESIS 2               
1 31789U 07028A   09118.37978655  .00000064  00000-0  18155-4 0  5107
2 31789  64.5074 185.3740 0058549 269.5720  89.8686 15.03022454100648
